              TDR Cartesian                         TDR Cartesian  
    -----------------------------------       --------------------------------
     X    =       11469313.17                 X    =         3495846.66
     Y    =        8445813.70  feet           Y    =         2574284.02  meter
     Z    =       17061651.58                 Z    =         5200391.40
     XDOT =      -9978.031430                 XDOT =       -3041.303980
     YDOT =      21645.253276  feet/sec       YDOT =        6597.473199  meter/sec
     ZDOT =      -3994.271104                 ZDOT =       -1217.453833
  
  
    The mean element set is posted at the UTC for which position is
    just north of the next ascending node relative to the above
    vector time
 
 
    TWO LINE MEAN ELEMENT SET
  
    ISS
    1 25544U 98067A   16120.47812029  .00016717  00000-0  10270-3 0  9044
    2 25544  51.6419 301.0129 0001694  63.7176 296.4150 15.54353432 37400
  
  
    Satellite: ISS
    Catalog Number: 25544
    Epoch time:      16120.47812029   =   yrday.fracday
    Element set:     904
    Inclination:       51.6419  deg
    RA of node:       301.0129  deg
    Eccentricity:     .0001694     
    Arg of perigee:    63.7176  deg
    Mean anomaly:     296.4150  deg
    Mean motion:   15.54353432  rev/day
    Decay rate:    1.67170E-04  rev/day^2
    Epoch rev:            3740
    Checksum:              288
 
 
    Coasting Arc #6 (Orbit 3754)
    ---------------------------------------
 
    Vector Time (GMT): 2016/121/10:22:01.355
    Vector Time (MET): N/A
    Weight (LBS)     : 945238.6
 
              M50 Cartesian                         M50 Keplerian  
    -----------------------------------       --------------------------------
     X    =       -1792014.21                 A    =         6779827.17  meter
     Y    =       -4707096.33  meter          E    =           .0011217
     Z    =       -4549391.55                 I    =           51.30005
     XDOT =       5047.772612                 Wp   =          104.43011
     YDOT =      -4878.786425  meter/sec      RA   =          295.51386  deg
     ZDOT =       3063.200352                 TA   =          196.37868
                                              MA   =          196.41495
                                              Ha   =            221.187  n.mi
                                              Hp   =            213.652
 
              M50 Cartesian                         J2K Cartesian  
    -----------------------------------       --------------------------------
     X    =       -5879311.70                 X    =        -1717145.95
     Y    =      -15443229.41  feet           Y    =        -4726717.29  meter
     Z    =      -14925825.29                 Z    =        -4557914.83
     XDOT =      16560.933767                 XDOT =        5087.073443
     YDOT =     -16006.517144  feet/sec       YDOT =       -4822.119072  meter/sec
     ZDOT =      10049.869920                 ZDOT =        3087.816892
 
              TDR Cartesian                         TDR Cartesian  
    -----------------------------------       --------------------------------
     X    =       -9216936.19                 X    =        -2809322.15
     Y    =      -13675834.12  feet           Y    =        -4168394.24  meter
     Z    =      -14961936.70                 Z    =        -4560398.31
     XDOT =      11323.323717                 XDOT =        3451.349069
     YDOT =     -18731.433666  feet/sec       YDOT =       -5709.340981  meter/sec
     ZDOT =      10157.696057                 ZDOT =        3096.065758
  
  
    The mean element set is posted at the UTC for which position is
    just north of the next ascending node relative to the above
    vector time
 
 
    TWO LINE MEAN ELEMENT SET
  
    ISS
    1 25544U 98067A   16121.44250758  .00016717  00000-0  10270-3 0  9058
    2 25544  51.6401 296.2035 0001660  69.0206 291.1125 15.54368781 37551
  
  
    Satellite: ISS
    Catalog Number: 25544
    Epoch time:      16121.44250758   =   yrday.fracday
    Element set:     905
    Inclination:       51.6401  deg
    RA of node:       296.2035  deg
    Eccentricity:     .0001660     
    Arg of perigee:    69.0206  deg
    Mean anomaly:     291.1125  deg
    Mean motion:   15.54368781  rev/day
    Decay rate:    1.67170E-04  rev/day^2
    Epoch rev:            3755
    Checksum:              293
 
 
    Coasting Arc #7 (Orbit 3770)
    ---------------------------------------
 
    Vector Time (GMT): 2016/122/10:22:01.355
    Vector Time (MET): N/A
    Weight (LBS)     : 945238.6
 
              M50 Cartesian                         M50 Keplerian  
    -----------------------------------       --------------------------------
     X    =         697617.98                 A    =         6783712.44  meter
     Y    =        5840055.45  meter          E    =           .0013871
     Z    =        3368737.85                 I    =           51.30122
     XDOT =      -5174.209977                 Wp   =           87.74239
     YDOT =       3288.335561  meter/sec      RA   =          290.50088  deg
     ZDOT =      -4612.145544                 TA   =           52.70172
                                              MA   =           52.57535
                                              Ha   =            221.061  n.mi
                                              Hp   =            213.727
 
              M50 Cartesian                         J2K Cartesian  
    -----------------------------------       --------------------------------
     X    =        2288772.90                 X    =          615897.17
     Y    =       19160286.90  feet           Y    =         5847399.85  meter
     Z    =       11052289.53                 Z    =         3371928.06
     XDOT =     -16975.754517                 XDOT =       -5188.192414
     YDOT =      10788.502496  feet/sec       YDOT =        3230.395781  meter/sec
     ZDOT =     -15131.711102                 ZDOT =       -4637.314820
 
              TDR Cartesian                         TDR Cartesian  
    -----------------------------------       --------------------------------
     X    =        6924401.84                 X    =         2110557.68
     Y    =       18003493.40  feet           Y    =         5487464.79  meter
     Z    =       11065037.91                 Z    =         3372623.55
     XDOT =     -12343.139869                 XDOT =       -3762.189032
     YDOT =      14149.206202  feet/sec       YDOT =        4312.678050  meter/sec
     ZDOT =     -15241.626592                 ZDOT =       -4645.647785
  
  
    The mean element set is posted at the UTC for which position is
    just north of the next ascending node relative to the above
    vector time
 
 
    TWO LINE MEAN ELEMENT SET
  
    ISS
    1 25544U 98067A   16122.47118122  .00016717  00000-0  10270-3 0  9061
    2 25544  51.6410 291.0734 0001512  64.8653 295.2657 15.54400616 37712
  
  
    Satellite: ISS
    Catalog Number: 25544
    Epoch time:      16122.47118122   =   yrday.fracday
    Element set:     906
    Inclination:       51.6410  deg
    RA of node:       291.0734  deg
    Eccentricity:     .0001512     
    Arg of perigee:    64.8653  deg
    Mean anomaly:     295.2657  deg
    Mean motion:   15.54400616  rev/day
    Decay rate:    1.67170E-04  rev/day^2
    Epoch rev:            3771
    Checksum:              287
 
 
    Coasting Arc #8 (Orbit 3785)
    ---------------------------------------
 
    Vector Time (GMT): 2016/123/10:22:01.355
    Vector Time (MET): N/A
    Weight (LBS)     : 945238.6
 
              M50 Cartesian                         M50 Keplerian  
    -----------------------------------       --------------------------------
     X    =         285184.59                 A    =         6787180.91  meter
     Y    =       -6526058.68  meter          E    =           .0008669
     Z    =       -1833574.17                 I    =           51.30073
     XDOT =       5042.183893                 Wp   =           45.32948
     YDOT =      -1350.823177  meter/sec      RA   =          285.49758  deg
     ZDOT =       5614.470608                 TA   =          294.41062
                                              MA   =          294.50105
                                              Ha   =            221.204  n.mi
                                              Hp   =            213.664
 
              M50 Cartesian                         J2K Cartesian  
    -----------------------------------       --------------------------------
     X    =         935644.99                 X    =          367046.22
     Y    =      -21410953.68  feet           Y    =        -6522411.92  meter
     Z    =       -6015663.29                 Z    =        -1831989.70
     XDOT =      16542.598073                 XDOT =        5029.641433
     YDOT =      -4431.834570  feet/sec       YDOT =       -1294.508020  meter/sec
     ZDOT =      18420.179159                 ZDOT =        5638.934111
 
              TDR Cartesian                         TDR Cartesian  
    -----------------------------------       --------------------------------
     X    =       -4754409.47                 X    =        -1449144.01
     Y    =      -20899697.83  feet           Y    =        -6370227.90  meter
     Z    =       -6007561.48                 Z    =        -1831104.74
     XDOT =      13130.320343                 XDOT =        4002.121641
     YDOT =      -8291.276675  feet/sec       YDOT =       -2527.181131  meter/sec
     ZDOT =      18526.660103                 ZDOT =        5646.926000
  
  
    The mean element set is posted at the UTC for which position is
    just north of the next ascending node relative to the above
    vector time
 
 
    TWO LINE MEAN ELEMENT SET
  
    ISS
    1 25544U 98067A   16123.43555995  .00016717  00000-0  10270-3 0  9072
    2 25544  51.6394 286.2635 0001685  75.8882 284.2458 15.54376656 37865
  
